BEESAT-4                
1 41619U 16040W   22092.64110226  .00022999  00000+0  82223-3 0  9999
2 41619  97.2265 145.3802 0010365  36.3853 323.8090 15.28766208309136
CAS-2T & KS-1Q          
1 41847U 16066G   22092.87615191  .00001589  00000+0  24608-3 0  9991
2 41847  98.5585 157.6047 0365386  75.9685 288.1832 14.38456067283488
NAYIF-1 (EO-88)         
1 42017U 17008BX  22092.73273019  .00025401  00000+0  82495-3 0  9999
2 42017  97.2767 160.0623 0006450 148.9367 211.2257 15.31897822285477
ZHUHAI-1 02 (CAS-4B)    
1 42759U 17034B   22092.85230569  .00005002  00000+0  30529-3 0  9993
2 42759  43.0188  29.2117 0007849 181.8723 275.6031 15.11209308264919
ZHUHAI-1 01 (CAS-4A)    
1 42761U 17034D   22092.89445712  .00005305  00000+0  32218-3 0  9991
2 42761  43.0186  27.8222 0008269 184.6692 282.7448 15.11302516264921
MAX VALIER SAT          
1 42778U 17036P   22092.86370817  .00012576  00000+0  49738-3 0  9994
2 42778  97.2152 136.5947 0010140 226.2722 133.7678 15.25552512265371
RADFXSAT (FOX-1B)       
1 43017U 17073E   22092.43622973  .00006881  00000+0  51926-3 0  9992
2 43017  97.6840 349.7322 0252660  76.7406 286.1853 14.80666081235869
FOX-1D (AO-92)          
1 43137U 18004AC  22092.74841089  .00016662  00000+0  61744-3 0  9992
2 43137  97.3732 168.6615 0006674 267.6392  92.4084 15.27685843234782
DIWATA-2B               
1 43678U 18084H   22092.80460859  .00001684  00000+0  17175-3 0  9996
2 43678  97.9562 225.2490 0010226 167.5528 192.5959 14.92002398186572
ES'HAIL 2               
1 43700U 18090A   22092.85049451  .00000135  00000+0  00000+0 0  9990
2 43700   0.0119 138.6608 0002331 262.9982 121.4628  1.00274059 12270
FOX-1CLIFF (AO-95)      
1 43770U 18099N   22092.75236925  .00004536  00000+0  40877-3 0  9998
2 43770  97.6281 161.0670 0014788 163.3395 196.8315 14.95980363181691
ITASAT 1                
1 43786U 18099AE  22092.82142909  .00003652  00000+0  32829-3 0  9997
2 43786  97.6305 162.0088 0015640 156.4094 203.7848 14.96189752181745
JY1SAT (JO-97)          
1 43803U 18099AX  22092.72799184  .00005495  00000+0  48651-3 0  9996
2 43803  97.6255 161.6577 0015804 157.0180 203.1752 14.96570561181742
UWE-4                   
1 43880U 18111E   22092.71476238  .00004816  00000+0  41613-3 0  9994
2 43880  97.6741   0.3576 0010899 209.1868 150.8747 14.97636220178368
NEXUS (FO-99)           
1 43937U 19003F   22092.81215951  .00019654  00000+0  70150-3 0  9996
2 43937  97.1398 129.1733 0023120  67.4225 292.9459 15.28641820178413
PSAT2 (NO-104)          
1 44354U 19036R   22092.38824767  .00059579 -54488-5  61908-3 0  9996
2 44354  28.5280 341.8288 0262636 199.5973 159.4366 15.30469936152984
BRICSAT2 (NO-103)       
1 44355U 19036S   22092.65651506  .00589684  11461-3  16812-2 0  9995
2 44355  28.5173 215.9517 0095311  45.4638 315.3711 15.84619451154250
JAISAT-1                
1 44419U 19038F   22092.89455254  .00013593  00000+0  70916-3 0  9996
2 44419  97.6301  62.5198 0021194  38.8062 321.4688 15.15873160151607
DUCHIFAT-3              
1 44854U 19089C   22092.59380249  .00004903  00000+0  38816-3 0  9991
2 44854  36.9630 189.8600 0009136 325.8883  34.1386 15.00433636126535
CAS-6 (TO-108)          
1 44881U 19093C   22092.87491922  .00000705  00000+0  96246-4 0  9996
2 44881  97.8960 173.1644 0016449  73.7568 286.5455 14.81616332123581
RS-44 & BREEZE-KM R/B   
1 44909U 19096E   22092.90204702  .00000037  00000+0  95125-4 0  9995
2 44909  82.5165 280.4758 0218168 136.2168 225.6465 12.79712846105847
ORBITAL FACTORY 2 (OF-2)
1 45113U 19071C   22092.35505190  .00038224  00000+0  90747-3 0  9993
2 45113  51.6392  72.6783 0008372 260.4933  99.5106 15.41286690121626
HUSKYSAT-1 (HO-107)     
1 45119U 19071J   22092.65064204  .00033384  00000+0  80615-3 0  9993
2 45119  51.6399  70.8829 0008063 256.9849 103.0236 15.40841606121665
BY70-2                  
1 45857U 20042B   22093.13960102  .00008725  00000+0  11963-2 0  9998
2 45857  97.9570 170.7628 0009450   7.8676 352.3723 14.78636378 94327
SALSAT                  
1 46495U 20068K   22092.79929178  .00004029  00000+0  29464-3 0  9993
2 46495  97.7226  34.1309 0016850 168.7568 191.4037 15.04076871 82817
BY70-3                  
1 46839U 20079N   22092.89006286  .00025849  00000+0  68257-3 0  9990
2 46839  97.2062 166.1421 0005385 231.9769 241.3096 15.38418760 78617
RADFXSAT-2 (AO-109)     
1 47311U 21002C   22092.85330090  .00012221  00000+0  51240-3 0  9996
2 47311  60.6858 286.5397 0013508 221.2593 138.7474 15.23833002 66937
UVSQ-SAT                
1 47438U 21006AB  22092.73025785  .00010724  00000+0  58244-3 0  9996
2 47438  97.4456 153.3180 0012660 171.6298 188.5147 15.14626118 65812
DIY-1 (ARDUIQUBE)       
1 47963U 21022AH  22092.71402061  .00027085  00000+0  16232-2 0  9999
2 47963  97.5392 355.0734 0019530  39.8169 320.4489 15.10784987 55502
XW-3 (CAS-9)            
1 50466U 21131B   22092.84101549  .00000399  00000+0  14533-3 0  9995
2 50466  98.5838 170.1231 0004705  30.9262 329.2202 14.38457822 14040
